[{"OBJECT_NAME":"FLOCK 4G-23","OBJECT_ID":"2025-009AQ","EPOCH":"2026-04-27T04:21:38.654496","MEAN_MOTION":15.28820699,"ECCENTRICITY":0.00026344,"INCLINATION":97.3943,"RA_OF_ASC_NODE":199.0419,"ARG_OF_PERICENTER":135.7356,"MEAN_ANOMALY":224.4095,"EPHEMERIS_TYPE":0,"CLASSIFICATION_TYPE":"U","NORAD_CAT_ID":62647,"ELEMENT_SET_NO":999,"REV_AT_EPOCH":7112,"BSTAR":0.0016995921,"MEAN_MOTION_DOT":0.00047783,"MEAN_MOTION_DDOT":0},{"OBJECT_NAME":"FLOCK 4G-34","OBJECT_ID":"2025-009AT","EPOCH":"2026-04-27T04:49:57.268128","MEAN_MOTION":15.28241766,"ECCENTRICITY":0.000344,"INCLINATION":97.3967,"RA_OF_ASC_NODE":199.1167,"ARG_OF_PERICENTER":119.832,"MEAN_ANOMALY":240.3262,"EPHEMERIS_TYPE":0,"CLASSIFICATION_TYPE":"U","NORAD_CAT_ID":62650,"ELEMENT_SET_NO":999,"REV_AT_EPOCH":7112,"BSTAR":0.00047647424,"MEAN_MOTION_DOT":0.00013048,"MEAN_MOTION_DDOT":0},{"OBJECT_NAME":"FLOCK 4G-21","OBJECT_ID":"2025-009AU","EPOCH":"2026-04-27T05:05:46.557888","MEAN_MOTION":15.29570281,"ECCENTRICITY":0.00032542,"INCLINATION":97.3997,"RA_OF_ASC_NODE":199.8879,"ARG_OF_PERICENTER":121.316,"MEAN_ANOMALY":238.8399,"EPHEMERIS_TYPE":0,"CLASSIFICATION_TYPE":"U","NORAD_CAT_ID":62651,"ELEMENT_SET_NO":999,"REV_AT_EPOCH":7116,"BSTAR":0.00050449313,"MEAN_MOTION_DOT":0.00014397,"MEAN_MOTION_DDOT":0},{"OBJECT_NAME":"FLOCK 4G-31","OBJECT_ID":"2025-009AV","EPOCH":"2026-04-27T05:18:57.288960","MEAN_MOTION":15.28078738,"ECCENTRICITY":0.00030776,"INCLINATION":97.3975,"RA_OF_ASC_NODE":199.1257,"ARG_OF_PERICENTER":122.3793,"MEAN_ANOMALY":237.7745,"EPHEMERIS_TYPE":0,"CLASSIFICATION_TYPE":"U","NORAD_CAT_ID":62652,"ELEMENT_SET_NO":999,"REV_AT_EPOCH":7112,"BSTAR":0.0004833895,"MEAN_MOTION_DOT":0.00013173,"MEAN_MOTION_DDOT":0},{"OBJECT_NAME":"FLOCK 4G-4","OBJECT_ID":"2025-009BC","EPOCH":"2026-04-27T04:02:57.204960","MEAN_MOTION":15.27839247,"ECCENTRICITY":0.0003879,"INCLINATION":97.3956,"RA_OF_ASC_NODE":198.8119,"ARG_OF_PERICENTER":129.2396,"MEAN_ANOMALY":230.9188,"EPHEMERIS_TYPE":0,"CLASSIFICATION_TYPE":"U","NORAD_CAT_ID":62659,"ELEMENT_SET_NO":999,"REV_AT_EPOCH":12871,"BSTAR":0.00048848419,"MEAN_MOTION_DOT":0.00013217,"MEAN_MOTION_DDOT":0},{"OBJECT_NAME":"FLOCK 4G-6","OBJECT_ID":"2025-009BD","EPOCH":"2026-04-26T18:37:51.084480","MEAN_MOTION":15.28584854,"ECCENTRICITY":0.00046471,"INCLINATION":97.3947,"RA_OF_ASC_NODE":198.5079,"ARG_OF_PERICENTER":139.9403,"MEAN_ANOMALY":220.218,"EPHEMERIS_TYPE":0,"CLASSIFICATION_TYPE":"U","NORAD_CAT_ID":62660,"ELEMENT_SET_NO":999,"REV_AT_EPOCH":12864,"BSTAR":0.00045687379,"MEAN_MOTION_DOT":0.00012642,"MEAN_MOTION_DDOT":0},{"OBJECT_NAME":"FLOCK 4G-2","OBJECT_ID":"2025-009BE","EPOCH":"2026-04-27T04:16:40.267776","MEAN_MOTION":15.28846165,"ECCENTRICITY":0.00054748,"INCLINATION":97.4012,"RA_OF_ASC_NODE":199.4435,"ARG_OF_PERICENTER":135.7165,"MEAN_ANOMALY":224.4514,"EPHEMERIS_TYPE":0,"CLASSIFICATION_TYPE":"U","NORAD_CAT_ID":62661,"ELEMENT_SET_NO":999,"REV_AT_EPOCH":12873,"BSTAR":0.00050225535,"MEAN_MOTION_DOT":0.0001402,"MEAN_MOTION_DDOT":0},{"OBJECT_NAME":"FLOCK 4G-5","OBJECT_ID":"2025-009BG","EPOCH":"2026-04-27T04:57:59.645376","MEAN_MOTION":15.29605281,"ECCENTRICITY":0.00048446,"INCLINATION":97.4026,"RA_OF_ASC_NODE":199.775,"ARG_OF_PERICENTER":121.2207,"MEAN_ANOMALY":238.9509,"EPHEMERIS_TYPE":0,"CLASSIFICATION_TYPE":"U","NORAD_CAT_ID":62663,"ELEMENT_SET_NO":999,"REV_AT_EPOCH":7114,"BSTAR":0.0004169686,"MEAN_MOTION_DOT":0.00011897,"MEAN_MOTION_DDOT":0},{"OBJECT_NAME":"FLOCK 4G-1","OBJECT_ID":"2025-009BK","EPOCH":"2026-04-27T05:14:28.042368","MEAN_MOTION":15.2859124,"ECCENTRICITY":0.00057077,"INCLINATION":97.4027,"RA_OF_ASC_NODE":199.4706,"ARG_OF_PERICENTER":134.1688,"MEAN_ANOMALY":226.0022,"EPHEMERIS_TYPE":0,"CLASSIFICATION_TYPE":"U","NORAD_CAT_ID":62666,"ELEMENT_SET_NO":999,"REV_AT_EPOCH":7112,"BSTAR":0.00050074574,"MEAN_MOTION_DOT":0.0001387,"MEAN_MOTION_DDOT":0},{"OBJECT_NAME":"FLOCK 4G-14","OBJECT_ID":"2025-009BL","EPOCH":"2026-04-27T05:27:58.247136","MEAN_MOTION":15.28219104,"ECCENTRICITY":0.00059179,"INCLINATION":97.4027,"RA_OF_ASC_NODE":199.3255,"ARG_OF_PERICENTER":129.3486,"MEAN_ANOMALY":230.8279,"EPHEMERIS_TYPE":0,"CLASSIFICATION_TYPE":"U","NORAD_CAT_ID":62667,"ELEMENT_SET_NO":999,"REV_AT_EPOCH":7111,"BSTAR":0.00051620402,"MEAN_MOTION_DOT":0.00014139,"MEAN_MOTION_DDOT":0},{"OBJECT_NAME":"FLOCK 4G-10","OBJECT_ID":"2025-009BP","EPOCH":"2026-04-27T04:14:41.993952","MEAN_MOTION":15.2824973,"ECCENTRICITY":0.00057165,"INCLINATION":97.3931,"RA_OF_ASC_NODE":198.6684,"ARG_OF_PERICENTER":143.2759,"MEAN_ANOMALY":216.8874,"EPHEMERIS_TYPE":0,"CLASSIFICATION_TYPE":"U","NORAD_CAT_ID":62670,"ELEMENT_SET_NO":999,"REV_AT_EPOCH":12874,"BSTAR":0.0004501737,"MEAN_MOTION_DOT":0.0001233,"MEAN_MOTION_DDOT":0},{"OBJECT_NAME":"FLOCK 4G-36","OBJECT_ID":"2025-009BU","EPOCH":"2026-04-26T18:43:35.272704","MEAN_MOTION":15.28343096,"ECCENTRICITY":0.00060909,"INCLINATION":97.4016,"RA_OF_ASC_NODE":198.8011,"ARG_OF_PERICENTER":134.7943,"MEAN_ANOMALY":225.3793,"EPHEMERIS_TYPE":0,"CLASSIFICATION_TYPE":"U","NORAD_CAT_ID":62675,"ELEMENT_SET_NO":999,"REV_AT_EPOCH":7104,"BSTAR":0.000474444,"MEAN_MOTION_DOT":0.00013037,"MEAN_MOTION_DDOT":0},{"OBJECT_NAME":"FLOCK 4G-15","OBJECT_ID":"2025-009BX","EPOCH":"2026-04-27T04:23:08.989152","MEAN_MOTION":15.28367436,"ECCENTRICITY":0.00062405,"INCLINATION":97.4019,"RA_OF_ASC_NODE":199.3351,"ARG_OF_PERICENTER":131.0855,"MEAN_ANOMALY":229.0925,"EPHEMERIS_TYPE":0,"CLASSIFICATION_TYPE":"U","NORAD_CAT_ID":62678,"ELEMENT_SET_NO":999,"REV_AT_EPOCH":12875,"BSTAR":0.00050869214,"MEAN_MOTION_DOT":0.00013996,"MEAN_MOTION_DDOT":0},{"OBJECT_NAME":"FLOCK 4G-30","OBJECT_ID":"2025-009BY","EPOCH":"2026-04-26T17:09:31.359456","MEAN_MOTION":15.28610033,"ECCENTRICITY":0.00054491,"INCLINATION":97.3931,"RA_OF_ASC_NODE":198.2324,"ARG_OF_PERICENTER":148.6481,"MEAN_ANOMALY":211.5084,"EPHEMERIS_TYPE":0,"CLASSIFICATION_TYPE":"U","NORAD_CAT_ID":62679,"ELEMENT_SET_NO":999,"REV_AT_EPOCH":12867,"BSTAR":0.0016633327,"MEAN_MOTION_DOT":0.00046468,"MEAN_MOTION_DDOT":0},{"OBJECT_NAME":"FLOCK 4G-18","OBJECT_ID":"2025-009BZ","EPOCH":"2026-04-27T04:19:58.307808","MEAN_MOTION":15.28340842,"ECCENTRICITY":0.00065233,"INCLINATION":97.4018,"RA_OF_ASC_NODE":199.1617,"ARG_OF_PERICENTER":141.245,"MEAN_ANOMALY":218.9259,"EPHEMERIS_TYPE":0,"CLASSIFICATION_TYPE":"U","NORAD_CAT_ID":62680,"ELEMENT_SET_NO":999,"REV_AT_EPOCH":12874,"BSTAR":0.00050428284,"MEAN_MOTION_DOT":0.00013864,"MEAN_MOTION_DDOT":0},{"OBJECT_NAME":"FLOCK 4G-17","OBJECT_ID":"2025-009CA","EPOCH":"2026-04-27T05:13:23.320128","MEAN_MOTION":15.28502806,"ECCENTRICITY":0.00059294,"INCLINATION":97.3931,"RA_OF_ASC_NODE":198.9176,"ARG_OF_PERICENTER":144.0323,"MEAN_ANOMALY":216.1317,"EPHEMERIS_TYPE":0,"CLASSIFICATION_TYPE":"U","NORAD_CAT_ID":62681,"ELEMENT_SET_NO":999,"REV_AT_EPOCH":12876,"BSTAR":0.00048271903,"MEAN_MOTION_DOT":0.00013331,"MEAN_MOTION_DDOT":0}]
